start=new Date('2021-11-10T00:00:00.000Z').valueOf();
sats=[{"GP_ID":"189360339","PERIAPSIS":"546.106","MEAN_ELEMENT_THEORY":"SGP4","RCS_SIZE":"LARGE","TIME_SYSTEM":"UTC","OBJECT_NAME":"STARLINK-1476","OBJECT_TYPE":"PAYLOAD","PERIOD":"95.593","TLE_LINE2":"2 45753  53.0542 113.8318 0001634  88.5167 271.6009 15.06392268 78191","FILE":"3210180","REF_FRAME":"TEME","MEAN_ANOMALY":"271.6009","MEAN_MOTION":"15.06392268","DECAY_DATE":null,"ARG_OF_PERICENTER":"88.5167","APOAPSIS":"548.369","MEAN_MOTION_DDOT":"0.0000000000000","INCLINATION":"53.0542","REV_AT_EPOCH":"7819","MEAN_MOTION_DOT":"0.00000912","SITE":"AFETR","NORAD_CAT_ID":"45753","ECCENTRICITY":"0.00016340","SEMIMAJOR_AXIS":"6925.372","CENTER_NAME":"EARTH","EPOCH":"2021-11-09T17:29:55.571424","TLE_LINE1":"1 45753U 20038Z   21313.72911541  .00000912  00000-0  80166-4 0  9994","LAUNCH_DATE":"2020-06-13","EPHEMERIS_TYPE":"0","BSTAR":"0.00008016600000","ELEMENT_SET_NO":"999","CLASSIFICATION_TYPE":"U","RA_OF_ASC_NODE":"113.8318","COUNTRY_CODE":"US","OBJECT_ID":"2020-038Z"},{"GP_ID":"189359087","OBJECT_NAME":"STARLINK-1477","TIME_SYSTEM":"UTC","RCS_SIZE":"LARGE","PERIAPSIS":"546.219","MEAN_ELEMENT_THEORY":"SGP4","MEAN_MOTION":"15.06387498","MEAN_ANOMALY":"269.7678","REF_FRAME":"TEME","FILE":"3210180","TLE_LINE2":"2 45754  53.0538 113.5200 0001491  90.3482 269.7678 15.06387498 78207","PERIOD":"95.593","OBJECT_TYPE":"PAYLOAD","APOAPSIS":"548.284","MEAN_MOTION_DDOT":"0.0000000000000","ARG_OF_PERICENTER":"90.3482","DECAY_DATE":null,"SITE":"AFETR","MEAN_MOTION_DOT":"-0.00000102","INCLINATION":"53.0538","REV_AT_EPOCH":"7820","SEMIMAJOR_AXIS":"6925.387","NORAD_CAT_ID":"45754","ECCENTRICITY":"0.00014910","EPHEMERIS_TYPE":"0","BSTAR":"0.00001202500000","LAUNCH_DATE":"2020-06-13","TLE_LINE1":"1 45754U 20038AA  21313.79913944 -.00000102  00000-0  12025-4 0  9992","EPOCH":"2021-11-09T19:10:45.647616","CENTER_NAME":"EARTH","OBJECT_ID":"2020-038AA","COUNTRY_CODE":"US","RA_OF_ASC_NODE":"113.5200","CLASSIFICATION_TYPE":"U","ELEMENT_SET_NO":"999"},{"OBJECT_ID":"2020-038AB","COUNTRY_CODE":"US","RA_OF_ASC_NODE":"113.7372","CLASSIFICATION_TYPE":"U","ELEMENT_SET_NO":"999","EPHEMERIS_TYPE":"0","BSTAR":"0.00011925000000","LAUNCH_DATE":"2020-06-13","TLE_LINE1":"1 45755U 20038AB  21313.75121660  .00001495  00000-0  11925-3 0  9997","EPOCH":"2021-11-09T18:01:45.114240","CENTER_NAME":"EARTH","SEMIMAJOR_AXIS":"6925.366","ECCENTRICITY":"0.00016020","NORAD_CAT_ID":"45755","SITE":"AFETR","MEAN_MOTION_DOT":"0.00001495","INCLINATION":"53.0542","REV_AT_EPOCH":"7818","MEAN_MOTION_DDOT":"0.0000000000000","APOAPSIS":"548.340","ARG_OF_PERICENTER":"81.7640","DECAY_DATE":null,"MEAN_ANOMALY":"278.3530","MEAN_MOTION":"15.06394340","REF_FRAME":"TEME","FILE":"3210180","TLE_LINE2":"2 45755  53.0542 113.7372 0001602  81.7640 278.3530 15.06394340 78183","PERIOD":"95.592","OBJECT_TYPE":"PAYLOAD","OBJECT_NAME":"STARLINK-1478","TIME_SYSTEM":"UTC","RCS_SIZE":"LARGE","PERIAPSIS":"546.121","MEAN_ELEMENT_THEORY":"SGP4","GP_ID":"189359337"},{"GP_ID":"189359588","RCS_SIZE":"LARGE","PERIAPSIS":"545.987","MEAN_ELEMENT_THEORY":"SGP4","TIME_SYSTEM":"UTC","OBJECT_NAME":"STARLINK-1484","PERIOD":"95.593","OBJECT_TYPE":"PAYLOAD","TLE_LINE2":"2 45756  53.0551 113.4506 0001809  91.1064 269.0132 15.06391438 78195","REF_FRAME":"TEME","FILE":"3210180","MEAN_ANOMALY":"269.0132","MEAN_MOTION":"15.06391438","DECAY_DATE":null,"ARG_OF_PERICENTER":"91.1064","APOAPSIS":"548.493","MEAN_MOTION_DDOT":"0.0000000000000","INCLINATION":"53.0551","REV_AT_EPOCH":"7819","MEAN_MOTION_DOT":"-0.00001034","SITE":"AFETR","NORAD_CAT_ID":"45756","ECCENTRICITY":"0.00018090","SEMIMAJOR_AXIS":"6925.375","EPOCH":"2021-11-09T19:32:00.109824","CENTER_NAME":"EARTH","TLE_LINE1":"1 45756U 20038AC  21313.81389016 -.00001034  00000-0 -50551-4 0  9996","LAUNCH_DATE":"2020-06-13","BSTAR":"-0.00005055100000","EPHEMERIS_TYPE":"0","ELEMENT_SET_NO":"999","RA_OF_ASC_NODE":"113.4506","CLASSIFICATION_TYPE":"U","OBJECT_ID":"2020-038AC","COUNTRY_CODE":"US"},{"TIME_SYSTEM":"UTC","OBJECT_NAME":"STARLINK-1486","RCS_SIZE":"LARGE","MEAN_ELEMENT_THEORY":"SGP4","PERIAPSIS":"546.091","GP_ID":"189359839","MEAN_MOTION_DDOT":"0.0000000000000","APOAPSIS":"548.385","DECAY_DATE":null,"ARG_OF_PERICENTER":"90.9216","REF_FRAME":"TEME","FILE":"3210180","MEAN_MOTION":"15.06391936","MEAN_ANOMALY":"269.1963","PERIOD":"95.593","OBJECT_TYPE":"PAYLOAD","TLE_LINE2":"2 45757  53.0540 113.3690 0001656  90.9216 269.1963 15.06391936 78199","NORAD_CAT_ID":"45757","ECCENTRICITY":"0.00016560","SEMIMAJOR_AXIS":"6925.373","SITE":"AFETR","REV_AT_EPOCH":"7819","INCLINATION":"53.0540","MEAN_MOTION_DOT":"-0.00000757","RA_OF_ASC_NODE":"113.3690","CLASSIFICATION_TYPE":"U","OBJECT_ID":"2020-038AD","COUNTRY_CODE":"US","ELEMENT_SET_NO":"999","EPHEMERIS_TYPE":"0","BSTAR":"-0.00003194500000","EPOCH":"2021-11-09T19:58:32.060928","CENTER_NAME":"EARTH","TLE_LINE1":"1 45757U 20038AD  21313.83231552 -.00000757  00000-0 -31945-4 0  9997","LAUNCH_DATE":"2020-06-13"},{"OBJECT_TYPE":"PAYLOAD","PERIOD":"95.593","TLE_LINE2":"2 45758  53.0538 114.8893 0001426  81.1819 278.9331 15.06383175 78142","FILE":"3210161","REF_FRAME":"TEME","MEAN_MOTION":"15.06383175","MEAN_ANOMALY":"278.9331","DECAY_DATE":null,"ARG_OF_PERICENTER":"81.1819","APOAPSIS":"548.253","MEAN_MOTION_DDOT":"0.0000000000000","GP_ID":"189335338","MEAN_ELEMENT_THEORY":"SGP4","PERIAPSIS":"546.278","RCS_SIZE":"LARGE","TIME_SYSTEM":"UTC","OBJECT_NAME":"STARLINK-1487","CENTER_NAME":"EARTH","EPOCH":"2021-11-09T11:50:13.255872","LAUNCH_DATE":"2020-06-13","TLE_LINE1":"1 45758U 20038AE  21313.49320898  .00000364  00000-0  43352-4 0  9999","BSTAR":"0.00004335200000","EPHEMERIS_TYPE":"0","ELEMENT_SET_NO":"999","CLASSIFICATION_TYPE":"U","RA_OF_ASC_NODE":"114.8893","COUNTRY_CODE":"US","OBJECT_ID":"2020-038AE","REV_AT_EPOCH":"7814","INCLINATION":"53.0538","MEAN_MOTION_DOT":"0.00000364","SITE":"AFETR","NORAD_CAT_ID":"45758","ECCENTRICITY":"0.00014260","SEMIMAJOR_AXIS":"6925.400"},{"SEMIMAJOR_AXIS":"6925.345","NORAD_CAT_ID":"45759","ECCENTRICITY":"0.00015600","MEAN_MOTION_DOT":"-0.00000526","REV_AT_EPOCH":"7818","INCLINATION":"53.0533","SITE":"AFETR","ELEMENT_SET_NO":"999","OBJECT_ID":"2020-038AF","COUNTRY_CODE":"US","RA_OF_ASC_NODE":"113.7823","CLASSIFICATION_TYPE":"U","TLE_LINE1":"1 45759U 20038AF  21313.74016762 -.00000526  00000-0 -16395-4 0  9999","LAUNCH_DATE":"2020-06-13","EPOCH":"2021-11-09T17:45:50.482368","CENTER_NAME":"EARTH","EPHEMERIS_TYPE":"0","BSTAR":"-0.00001639500000","RCS_SIZE":"LARGE","PERIAPSIS":"546.130","MEAN_ELEMENT_THEORY":"SGP4","OBJECT_NAME":"STARLINK-1493","TIME_SYSTEM":"UTC","GP_ID":"189358837","ARG_OF_PERICENTER":"87.9919","DECAY_DATE":null,"APOAPSIS":"548.290","MEAN_MOTION_DDOT":"0.0000000000000","TLE_LINE2":"2 45759  53.0533 113.7823 0001560  87.9919 272.1248 15.06401179 78185","PERIOD":"95.592","OBJECT_TYPE":"PAYLOAD","MEAN_MOTION":"15.06401179","MEAN_ANOMALY":"272.1248","REF_FRAME":"TEME","FILE":"3210180"},{"SITE":"AFETR","REV_AT_EPOCH":"7819","INCLINATION":"53.0543","MEAN_MOTION_DOT":"0.00001468","ECCENTRICITY":"0.00012870","NORAD_CAT_ID":"45760","SEMIMAJOR_AXIS":"6925.368","BSTAR":"0.00011746000000","EPHEMERIS_TYPE":"0","CENTER_NAME":"EARTH","EPOCH":"2021-11-09T17:51:09.042624","TLE_LINE1":"1 45760U 20038AG  21313.74385466  .00001468  00000-0  11746-3 0  9999","LAUNCH_DATE":"2020-06-13","CLASSIFICATION_TYPE":"U","RA_OF_ASC_NODE":"113.7702","COUNTRY_CODE":"US","OBJECT_ID":"2020-038AG","ELEMENT_SET_NO":"999","GP_ID":"189360089","TIME_SYSTEM":"UTC","OBJECT_NAME":"STARLINK-1494","PERIAPSIS":"546.342","MEAN_ELEMENT_THEORY":"SGP4","RCS_SIZE":"LARGE","FILE":"3210180","REF_FRAME":"TEME","MEAN_MOTION":"15.06393555","MEAN_ANOMALY":"270.6137","OBJECT_TYPE":"PAYLOAD","PERIOD":"95.593","TLE_LINE2":"2 45760  53.0543 113.7702 0001287  89.4999 270.6137 15.06393555 78194","APOAPSIS":"548.125","MEAN_MOTION_DDOT":"0.0000000000000","DECAY_DATE":null,"ARG_OF_PERICENTER":"89.4999"},{"SEMIMAJOR_AXIS":"6781.017","NORAD_CAT_ID":"45761","ECCENTRICITY":"0.00019070","MEAN_MOTION_DOT":"0.00719601","INCLINATION":"53.0551","REV_AT_EPOCH":"7850","SITE":"AFETR","ELEMENT_SET_NO":"999","OBJECT_ID":"2020-038AH","COUNTRY_CODE":"US","RA_OF_ASC_NODE":"91.7541","CLASSIFICATION_TYPE":"U","TLE_LINE1":"1 45761U 20038AH  21313.64915328  .00719601  00000-0  98503-2 0  9995","LAUNCH_DATE":"2020-06-13","EPOCH":"2021-11-09T15:34:46.843392","CENTER_NAME":"EARTH","BSTAR":"0.00985030000000","EPHEMERIS_TYPE":"0","RCS_SIZE":"LARGE","PERIAPSIS":"401.589","MEAN_ELEMENT_THEORY":"SGP4","OBJECT_NAME":"STARLINK-1495","TIME_SYSTEM":"UTC","GP_ID":"189360340","ARG_OF_PERICENTER":"5.0597","DECAY_DATE":null,"APOAPSIS":"404.175","MEAN_MOTION_DDOT":"0.0000000000000","TLE_LINE2":"2 45761  53.0551  91.7541 0001907   5.0597 355.0432 15.54749792 78509","PERIOD":"92.619","OBJECT_TYPE":"PAYLOAD","MEAN_ANOMALY":"355.0432","MEAN_MOTION":"15.54749792","REF_FRAME":"TEME","FILE":"3210180"},{"CENTER_NAME":"EARTH","EPOCH":"2021-11-09T17:08:41.508384","TLE_LINE1":"1 45762U 20038AJ  21313.71436931 -.00000593  00000-0 -20919-4 0  9995","LAUNCH_DATE":"2020-06-13","BSTAR":"-0.00002091900000","EPHEMERIS_TYPE":"0","ELEMENT_SET_NO":"999","CLASSIFICATION_TYPE":"U","RA_OF_ASC_NODE":"113.9000","COUNTRY_CODE":"US","OBJECT_ID":"2020-038AJ","REV_AT_EPOCH":"7819","INCLINATION":"53.0537","MEAN_MOTION_DOT":"-0.00000593","SITE":"AFETR","NORAD_CAT_ID":"45762","ECCENTRICITY":"0.00015330","SEMIMAJOR_AXIS":"6925.383","OBJECT_TYPE":"PAYLOAD","PERIOD":"95.593","TLE_LINE2":"2 45762  53.0537 113.9000 0001533  88.4338 271.6826 15.06388705 78199","FILE":"3210180","REF_FRAME":"TEME","MEAN_ANOMALY":"271.6826","MEAN_MOTION":"15.06388705","DECAY_DATE":null,"ARG_OF_PERICENTER":"88.4338","APOAPSIS":"548.310","MEAN_MOTION_DDOT":"0.0000000000000","GP_ID":"189359088","MEAN_ELEMENT_THEORY":"SGP4","PERIAPSIS":"546.187","RCS_SIZE":"LARGE","TIME_SYSTEM":"UTC","OBJECT_NAME":"STARLINK-1499"}];
